NORAD_CAT_ID,OBJECT_NAME,OBJECT_TYPE,EPOCH,MEAN_MOTION,ECCENTRICITY,INCLINATION,RA_OF_ASC_NODE,ARG_OF_PERICENTER,MEAN_ANOMALY,BSTAR,MEAN_MOTION_DOT,MEAN_MOTION_DDOT,TLE_LINE0,TLE_LINE1,TLE_LINE2,SEMIMAJOR_AXIS,PERIOD,APOGEE,PERIGEE,DECAYED
52295.0,STARLINK-3765,PAYLOAD,2022-08-14 06:00:02,15.08825663,0.0001848,53.2141,190.4834,52.5062,118.2362,0.00091501,0.00014299,0.0,0 STARLINK-3765,1 52295U 22041AL  22226.25002315  .00014299  00000-0  91501-3 0  9998,2 52295  53.2141 190.4834 0001848  52.5062 118.2362 15.08825663 18951,6917.924,95.438,541.068,538.511,0.0
52295.0,STARLINK-3765,PAYLOAD,2022-08-14 14:00:01,15.08855903,0.0001764999999999,53.2139,188.9859,54.2962,127.9705,-0.0016370999999999,-0.0002626,0.0,0 STARLINK-3765,1 52295U 22041AL  22226.58334491 -.00026260  00000-0 -16371-2 0  9991,2 52295  53.2139 188.9859 0001765  54.2962 127.9705 15.08855903  1302,6917.831999999999,95.437,540.918,538.476,0.0
52295.0,STARLINK-3765,PAYLOAD,2022-08-14 22:00:00,15.08850568,0.0001754,53.2142,187.489,59.9289,133.9363,0.00061869,9.575e-05,0.0,0 STARLINK-3765,1 52295U 22041AL  22226.91667824  .00009575  00000-0  61869-3 0  9998,2 52295  53.2142 187.4890 0001754  59.9289 133.9363 15.08850568  1306,6917.848000000001,95.437,540.9259999999998,538.5,0.0
52295.0,STARLINK-3765,PAYLOAD,2022-08-15 14:00:01,15.08842604,0.0001742,53.2141,184.4966,52.8821,164.1888,-0.0015382999999999,-0.00024689,0.0,0 STARLINK-3765,1 52295U 22041AL  22227.58334491 -.00024689  00000-0 -15383-2 0  9997,2 52295  53.2141 184.4966 0001742  52.8821 164.1888 15.08842604  1307,6917.871999999999,95.437,540.943,538.5319999999998,0.0
52295.0,STARLINK-3765,PAYLOAD,2022-08-15 16:00:00,15.08820681,0.0001714,53.2142,184.1221,54.7445,255.2306,0.0012469,0.00019602,0.0,0 STARLINK-3765,1 52295U 22041AL  22227.66667824  .00019602  00000-0  12469-2 0  9994,2 52295  53.2142 184.1221 0001714  54.7445 255.2306 15.08820681 19162,6917.939,95.439,540.99,538.619,0.0
52295.0,STARLINK-3765,PAYLOAD,2022-08-15 22:00:00,15.08841004,0.0001763,53.2143,182.9998,58.3653,170.2885,0.00030443,4.56e-05,0.0,0 STARLINK-3765,1 52295U 22041AL  22227.91667824  .00004560  00000-0  30443-3 0  9992,2 52295  53.2143 182.9998 0001763  58.3653 170.2885 15.08841004  1302,6917.877,95.437,540.962,538.523,0.0
52295.0,STARLINK-3765,PAYLOAD,2022-08-16 14:00:01,15.08864522,0.0001763,53.2144,180.0072,52.8932,198.9598,-0.0038839,-0.00061614,0.0,0 STARLINK-3765,1 52295U 22041AL  22228.58334491 -.00061614  00000-0 -38839-2 0  9998,2 52295  53.2144 180.0072 0001763  52.8932 198.9598 15.08864522  1302,6917.805,95.436,540.89,538.451,0.0
52295.0,STARLINK-3765,PAYLOAD,2022-08-16 22:00:00,15.08837265,0.0001749,53.2145,178.5106,56.8735,206.5719,0.00015975,2.255e-05,0.0,0 STARLINK-3765,1 52295U 22041AL  22228.91667824  .00002255  00000-0  15975-3 0  9995,2 52295  53.2145 178.5106 0001749  56.8735 206.5719 15.08837265 19351,6917.889,95.438,540.964,538.544,0.0
52295.0,STARLINK-3765,PAYLOAD,2022-08-17 16:00:00,15.08835219,0.0001724,53.2146,175.1435,54.6483,324.883,0.000623,9.64e-05,0.0,0 STARLINK-3765,1 52295U 22041AL  22229.66667824  .00009640  00000-0  62300-3 0  9997,2 52295  53.2146 175.1435 0001724  54.6483 324.8830 15.08835219  1300,6917.895,95.438,540.953,538.567,0.0
52295.0,STARLINK-3765,PAYLOAD,2022-08-18 08:00:01,15.08823123,0.0001843,53.2144,172.1523,48.0096,354.7135,0.0028855,0.00045913,0.0,0 STARLINK-3765,1 52295U 22041AL  22230.33334491  .00045913  00000-0  28855-2 0  9993,2 52295  53.2144 172.1523 0001843  48.0096 354.7135 15.08823123 19571,6917.932,95.439,541.072,538.5219999999998,0.0
52295.0,STARLINK-3765,PAYLOAD,2022-08-18 14:00:01,15.08847582,0.0001714,53.2147,171.0286,53.494,267.9241,0.00026202,3.885e-05,0.0,0 STARLINK-3765,1 52295U 22041AL  22230.58334491  .00003885  00000-0  26202-3 0  9997,2 52295  53.2147 171.0286 0001714  53.4940 267.9241 15.08847582  1303,6917.857,95.437,540.908,538.536,0.0
52295.0,STARLINK-3765,PAYLOAD,2022-08-18 22:00:00,15.08877116,0.0001665,53.2148,169.5322,56.24,276.7724,-0.0019541,-0.00031285,0.0,0 STARLINK-3765,1 52295U 22041AL  22230.91667824 -.00031285  00000-0 -19541-2 0  9997,2 52295  53.2148 169.5322 0001665  56.2400 276.7724 15.08877116  1304,6917.767,95.435,540.784,538.48,0.0
52295.0,STARLINK-3765,PAYLOAD,2022-08-19 14:00:01,15.08816086,0.0001518,53.2145,166.5392,50.7516,305.4866,0.00080291,0.00012505,0.0,0 STARLINK-3765,1 52295U 22041AL  22231.58334491  .00012505  00000-0  80291-3 0  9995,2 52295  53.2145 166.5392 0001518  50.7516 305.4866 15.08816086  1305,6917.953,95.439,540.869,538.768,0.0
52295.0,STARLINK-3765,PAYLOAD,2022-08-19 22:00:00,15.08840347,0.0001541,53.2146,165.0432,53.3599,314.4373,-0.0009142,-0.00014808,0.0,0 STARLINK-3765,1 52295U 22041AL  22231.91667824 -.00014808  00000-0 -91420-3 0  9997,2 52295  53.2146 165.0432 0001541  53.3599 314.4373 15.08840347  1301,6917.879,95.438,540.81,538.678,0.0
52295.0,STARLINK-3765,PAYLOAD,2022-08-20 08:00:01,15.08829235,0.0001736,53.2139,163.1737,48.0375,64.2427,-0.0012904,-0.0002076,0.0,0 STARLINK-3765,1 52295U 22041AL  22232.33334491 -.00020760  00000-0 -12904-2 0  9998,2 52295  53.2139 163.1737 0001736  48.0375  64.2427 15.08829235 19873,6917.913000000001,95.438,540.979,538.577,0.0
52295.0,STARLINK-3765,PAYLOAD,2022-08-20 14:00:01,15.08805106,0.0001626999999999,53.2141,162.05,56.0974,334.8794,0.0013057,0.00020533,0.0,0 STARLINK-3765,1 52295U 22041AL  22232.58334491  .00020533  00000-0  13057-2 0  9991,2 52295  53.2141 162.0500 0001627  56.0974 334.8794 15.08805106  1308,6917.986999999999,95.44,540.9780000000002,538.726,0.0
52295.0,STARLINK-3765,PAYLOAD,2022-08-20 22:00:00,15.08836511,0.0001679,53.2142,160.5542,57.629,344.8995,-0.0013451,-0.0002163,0.0,0 STARLINK-3765,1 52295U 22041AL  22232.91667824 -.00021630  00000-0 -13451-2 0  9996,2 52295  53.2142 160.5542 0001679  57.6290 344.8995 15.08836511  1301,6917.891,95.438,540.918,538.595,0.0
52295.0,STARLINK-3765,PAYLOAD,2022-08-21 06:00:00,15.08801202,0.0001808,53.2138,159.0591,51.8596,2.2519,0.0028875999999999,0.00045919,0.0,0 STARLINK-3765,1 52295U 22041AL  22233.25001157  .00045919  00000-0  28876-2 0  9996,2 52295  53.2138 159.0591 0001808  51.8596   2.2519 15.08801202 20017,6917.999,95.44,541.115,538.613,0.0
52295.0,STARLINK-3765,PAYLOAD,2022-08-21 14:00:01,15.08817898,0.0001665,53.2138,157.5609,58.2271,7.4644,0.0016332999999999,0.00025786,0.0,0 STARLINK-3765,1 52295U 22041AL  22233.58334491  .00025786  00000-0  16333-2 0  9997,2 52295  53.2138 157.5609 0001665  58.2271   7.4644 15.08817898  1307,6917.948,95.439,540.965,538.661,0.0
52295.0,STARLINK-3765,PAYLOAD,2022-08-21 22:00:00,15.08854113,0.0001758,53.2138,156.0652,59.1141,18.1506,-0.0015653,-0.00025123,0.0,0 STARLINK-3765,1 52295U 22041AL  22233.91667824 -.00025123  00000-0 -15653-2 0  9994,2 52295  53.2138 156.0652 0001758  59.1141  18.1506 15.08854113  1305,6917.837,95.437,540.918,538.486,0.0
52295.0,STARLINK-3765,PAYLOAD,2022-08-22 12:00:00,15.0885194,0.0001795,53.2138,153.4461,57.4814,310.0796,-0.00091799,-0.00014873,0.0,0 STARLINK-3765,1 52295U 22041AL  22234.50001157 -.00014873  00000-0 -91799-3 0  9997,2 52295  53.2138 153.4461 0001795  57.4814 310.0796 15.08851940 20191,6917.844,95.437,540.951,538.467,0.0
52295.0,STARLINK-3765,PAYLOAD,2022-08-22 22:00:00,15.08878965,0.0001831999999999,53.214,151.5759,59.0019,53.0571,-0.0037470999999999,-0.00059495,0.0,0 STARLINK-3765,1 52295U 22041AL  22234.91667824 -.00059495  00000-0 -37471-2 0  9996,2 52295  53.2140 151.5759 0001832  59.0019  53.0571 15.08878965  1303,6917.761,95.435,540.894,538.359,0.0
52295.0,STARLINK-3765,PAYLOAD,2022-08-23 14:00:01,15.08813378,0.0001732,53.2142,148.5824,57.5822,77.6851,0.0021217,0.00033616,0.0,0 STARLINK-3765,1 52295U 22041AL  22235.58334491  .00033616  00000-0  21217-2 0  9997,2 52295  53.2142 148.5824 0001732  57.5822  77.6851 15.08813378 20365,6917.962,95.439,541.025,538.629,0.0
52295.0,STARLINK-3765,PAYLOAD,2022-08-23 22:00:01,15.08852455,0.0001875,53.2145,147.0867,58.0118,88.8941,-0.001686,-0.0002703,0.0,0 STARLINK-3765,1 52295U 22041AL  22235.91668981 -.00027030  00000-0 -16860-2 0  9991,2 52295  53.2145 147.0867 0001875  58.0118  88.8941 15.08852455  1307,6917.842,95.437,541.004,538.41,0.0
52295.0,STARLINK-3765,PAYLOAD,2022-08-24 06:00:00,15.08826491,0.0001975,53.2145,145.5913,52.6409,105.8012,0.0021549,0.00034162,0.0,0 STARLINK-3765,1 52295U 22041AL  22236.25001157  .00034162  00000-0  21549-2 0  9997,2 52295  53.2145 145.5913 0001975  52.6409 105.8012 15.08826491 20464,6917.922,95.438,541.153,538.42,0.0
52295.0,STARLINK-3765,PAYLOAD,2022-08-24 14:00:01,15.08825893,0.000184,53.2149,144.0932,58.7711,111.2735,0.0024205999999999,0.00038432,0.0,0 STARLINK-3765,1 52295U 22041AL  22236.58334491  .00038432  00000-0  24206-2 0  9990,2 52295  53.2149 144.0932 0001840  58.7711 111.2735 15.08825893  1307,6917.924,95.438,541.061,538.516,0.0
52295.0,STARLINK-3765,PAYLOAD,2022-08-24 22:00:00,15.08870167,0.0001953,53.2151,142.5978,58.1462,123.4887,-0.0027264,-0.00043454,0.0,0 STARLINK-3765,1 52295U 22041AL  22236.91667824 -.00043454  00000-0 -27264-2 0  9995,2 52295  53.2151 142.5978 0001953  58.1462 123.4887 15.08870167 20561,6917.788000000001,95.436,541.004,538.302,0.0
52295.0,STARLINK-3765,PAYLOAD,2022-08-25 14:00:01,15.08809727,0.0001821999999999,53.2153,139.60399999999998,58.6553,146.188,0.0025399999999999,0.00040334,0.0,0 STARLINK-3765,1 52295U 22041AL  22237.58334491  .00040334  00000-0  25400-2 0  9992,2 52295  53.2153 139.6040 0001822  58.6553 146.1880 15.08809727  1301,6917.973000000001,95.439,541.0980000000002,538.577,0.0
52295.0,STARLINK-3765,PAYLOAD,2022-08-25 22:00:00,15.08846843,0.0001936,53.2156,138.1088,57.7814,158.6372,-0.0014489,-0.00023278,0.0,0 STARLINK-3765,1 52295U 22041AL  22237.91667824 -.00023278  00000-0 -14489-2 0  9993,2 52295  53.2156 138.1088 0001936  57.7814 158.6372 15.08846843  1300,6917.859,95.437,541.064,538.385,0.0
